{
    "links": {
        "self": "http://www.neowsapp.com/rest/v1/neo/3666625?api_key=iIulBulltgU6a56xZRHN4H3l9WmuAYTsLGpBGhQ2"
    },
    "id": "3666625",
    "neo_reference_id": "3666625",
    "name": "(2014 FC33)",
    "designation": "2014 FC33",
    "nasa_jpl_url": "http://ssd.jpl.nasa.gov/sbdb.cgi?sstr=3666625",
    "absolute_magnitude_h": 23.3,
    "estimated_diameter": {
        "kilometers": {
            "estimated_diameter_min": 0.058150704,
            "estimated_diameter_max": 0.130028927
        },
        "meters": {
            "estimated_diameter_min": 58.1507039646,
            "estimated_diameter_max": 130.0289270043
        },
        "miles": {
            "estimated_diameter_min": 0.0361331611,
            "estimated_diameter_max": 0.0807962044
        },
        "feet": {
            "estimated_diameter_min": 190.7831555951,
            "estimated_diameter_max": 426.6041048727
        }
    },
    "is_potentially_hazardous_asteroid": false,
    "close_approach_data": [
        {
            "close_approach_date": "2012-03-25",
            "close_approach_date_full": "2012-Mar-25 15:00",
            "epoch_date_close_approach": 1332687600000,
            "relative_velocity": {
                "kilometers_per_second": "20.1101316751",
                "kilometers_per_hour": "72396.474030383",
                "miles_per_hour": "44984.3535440455"
            },
            "miss_distance": {
                "astronomical": "0.272529506",
                "lunar": "106.013977834",
                "kilometers": "40769833.60975222",
                "miles": "25333199.889011836"
            },
            "orbiting_body": "Earth"
        },
        {
            "close_approach_date": "2014-03-28",
            "close_approach_date_full": "2014-Mar-28 08:12",
            "epoch_date_close_approach": 1395994320000,
            "relative_velocity": {
                "kilometers_per_second": "18.3348066354",
                "kilometers_per_hour": "66005.3038875761",
                "miles_per_hour": "41013.1289628108"
            },
            "miss_distance": {
                "astronomical": "0.2154280162",
                "lunar": "83.8014983018",
                "kilometers": "32227572.361845494",
                "miles": "20025284.8808520572"
            },
            "orbiting_body": "Earth"
        },
        {
            "close_approach_date": "2016-03-28",
            "close_approach_date_full": "2016-Mar-28 20:53",
            "epoch_date_close_approach": 1459198380000,
            "relative_velocity": {
                "kilometers_per_second": "17.269340044",
                "kilometers_per_hour": "62169.6241583521",
                "miles_per_hour": "38629.7867443938"
            },
            "miss_distance": {
                "astronomical": "0.2619298291",
                "lunar": "101.8907035199",
                "kilometers": "39184144.522824017",
                "miles": "24347898.3794327546"
            },
            "orbiting_body": "Earth"
        }
    ],
    "orbital_data": {
        "orbit_id": "6",
        "orbit_determination_date": "2017-04-06 08:41:56",
        "first_observation_date": "2014-03-26",
        "last_observation_date": "2014-04-06",
        "data_arc_in_days": 11,
        "observations_used": 24,
        "orbit_uncertainty": "9",
        "minimum_orbit_intersection": ".215275",
        "jupiter_tisserand_invariant": "4.127",
        "epoch_osculation": "2456744.5",
        "eccentricity": ".3181434210972888",
        "semi_major_axis": "1.601572040601676",
        "inclination": "33.42755248675978",
        "ascending_node_longitude": "180.4371402962082",
        "orbital_period": "740.3177200188491",
        "perihelion_distance": "1.092042432470893",
        "perihelion_argument": "58.30452521049948",
        "aphelion_distance": "2.11110164873246",
        "perihelion_time": "2456798.199309436103",
        "mean_anomaly": "333.8872231823589",
        "mean_motion": ".486277702485406",
        "equinox": "J2000",
        "orbit_class": {
            "orbit_class_type": "AMO",
            "orbit_class_description": "Near-Earth asteroid orbits similar to that of 1221 Amor",
            "orbit_class_range": "1.017 AU < q (perihelion) < 1.3 AU"
        }
    },
    "is_sentry_object": false
}